*******************************************************************************
Ephemeris / WWW_USER Mon Mar 24 06:39:42 2025 Pasadena, USA      / Horizons    
*******************************************************************************
Target body name: (2018 RD5)                      {source: JPL#11}
Center body name: Earth (399)                     {source: DE441}
Center-site name: Gemini South Obs., Cerro Pachon
*******************************************************************************
Start time      : A.D. 2018-Sep-29 22:51:00.0000 UT      
Stop  time      : A.D. 2018-Sep-30 10:14:00.0000 UT      
Step-size       : 1 minutes
*******************************************************************************
Target pole/equ : undefined
Target radii    : undefined                                                    
Center geodetic : 289.2634, -30.2406227, 2.71233  {E-lon(deg),Lat(deg),Alt(km)}
Center cylindric: 289.2634,5517.21435,-3194.81213 {E-lon(deg),Dxy(km),Dz(km)}
Center pole/equ : ITRF93                          {East-longitude positive}
Center radii    : 6378.137, 6378.137, 6356.752 km {Equator_a, b, pole_c}       
Target primary  : Sun
Vis. interferer : MOON (R_eq= 1737.400) km        {source: DE441}
Rel. light bend : Sun                             {source: DE441}
Rel. lght bnd GM: 1.3271E+11 km^3/s^2                                          
Small-body perts: Yes                             {source: SB441-N16}
Atmos refraction: NO (AIRLESS)
RA format       : HMS
Time format     : CAL 
Calendar mode   : Mixed Julian/Gregorian
RTS-only print  : NO       
EOP file        : eop.250321.p250617                                           
EOP coverage    : DATA-BASED 1962-JAN-20 TO 2025-MAR-21. PREDICTS-> 2025-JUN-16
Units conversion: 1 au= 149597870.700 km, c= 299792.458 km/s, 1 day= 86400.0 s 
Table cut-offs 1: Elevation (-90.0deg=NO ),Airmass (>38.000=NO), Daylight (YES)
Table cut-offs 2: Solar elongation (  0.0,180.0=NO ),Local Hour Angle( 0.0=NO )
Table cut-offs 3: RA/DEC angular rate (     0.0=NO )                           
*******************************************************************************
Initial IAU76/J2000 heliocentric ecliptic osculating elements (au, days, deg.):
  EPOCH=  2458378.5 ! 2018-Sep-17.00 (TDB)         Residual RMS= .55339        
   EC= .2891632988519429   QR= 1.009650912138325   TP= 2458360.6433297051      
   OM= 171.0145363394364   W=  163.7983400129293   IN= 8.474307805886117       
  Equivalent ICRF heliocentric cartesian coordinates (au, au/d):
   X= 1.017757009008053E+00  Y=-8.967367621791844E-02  Z=-4.840656937149759E-02
  VX= 3.309922676318766E-03 VY= 1.832358809606965E-02 VZ= 4.854018792897502E-03
Asteroid physical parameters (km, seconds, rotational period in hours):        
   GM= n.a.                RAD= n.a.               ROTPER= n.a.                
   H= 25.9                 G= .150                 B-V= n.a.                   
                           ALBEDO= n.a.            STYP= n.a.                  
*******************************************************************************
 Date__(UT)__HR:MN     R.A._________(ICRF)_________DEC
******************************************************
$$SOE
 2018-Sep-30 05:00  m  03 05 56.877150 -26 09 51.96255
 2018-Sep-30 05:01  m  03 05 56.904594 -26 09 52.57946
 2018-Sep-30 05:02  m  03 05 56.931946 -26 09 53.19554
 2018-Sep-30 05:03  m  03 05 56.959208 -26 09 53.81076
 2018-Sep-30 05:04  m  03 05 56.986381 -26 09 54.42515
 2018-Sep-30 05:05  m  03 05 57.013464 -26 09 55.03869
 2018-Sep-30 05:06  m  03 05 57.040458 -26 09 55.65137
 2018-Sep-30 05:07  m  03 05 57.067364 -26 09 56.26321
 2018-Sep-30 05:08  m  03 05 57.094183 -26 09 56.87419
 2018-Sep-30 05:09  m  03 05 57.120915 -26 09 57.48431
 2018-Sep-30 05:10  m  03 05 57.147561 -26 09 58.09358
 2018-Sep-30 05:11  m  03 05 57.174121 -26 09 58.70199
 2018-Sep-30 05:12  m  03 05 57.200596 -26 09 59.30953
 2018-Sep-30 05:13  m  03 05 57.226987 -26 09 59.91622
 2018-Sep-30 05:14  m  03 05 57.253294 -26 10 00.52203
 2018-Sep-30 05:15  m  03 05 57.279517 -26 10 01.12698
 2018-Sep-30 05:16  m  03 05 57.305658 -26 10 01.73106
 2018-Sep-30 05:17  m  03 05 57.331716 -26 10 02.33426
 2018-Sep-30 05:18  m  03 05 57.357694 -26 10 02.93659
 2018-Sep-30 05:19  m  03 05 57.383590 -26 10 03.53805
 2018-Sep-30 05:20  m  03 05 57.409406 -26 10 04.13863
 2018-Sep-30 05:21  m  03 05 57.435143 -26 10 04.73833
 2018-Sep-30 05:22  m  03 05 57.460800 -26 10 05.33715
 2018-Sep-30 05:23  m  03 05 57.486379 -26 10 05.93508
 2018-Sep-30 05:24  m  03 05 57.511880 -26 10 06.53213
 2018-Sep-30 05:25  m  03 05 57.537304 -26 10 07.12829
 2018-Sep-30 05:26  m  03 05 57.562652 -26 10 07.72357
 2018-Sep-30 05:27  m  03 05 57.587924 -26 10 08.31795
 2018-Sep-30 05:28  m  03 05 57.613120 -26 10 08.91144
 2018-Sep-30 05:29  m  03 05 57.638242 -26 10 09.50404
 2018-Sep-30 05:30  m  03 05 57.663289 -26 10 10.09574
 2018-Sep-30 05:31  m  03 05 57.688263 -26 10 10.68655
 2018-Sep-30 05:32  m  03 05 57.713165 -26 10 11.27645
 2018-Sep-30 05:33  m  03 05 57.737994 -26 10 11.86545
 2018-Sep-30 05:34  m  03 05 57.762751 -26 10 12.45356
 2018-Sep-30 05:35  m  03 05 57.787438 -26 10 13.04075
 2018-Sep-30 05:36  m  03 05 57.812054 -26 10 13.62705
 2018-Sep-30 05:37  m  03 05 57.836600 -26 10 14.21243
 2018-Sep-30 05:38  m  03 05 57.861078 -26 10 14.79691
 2018-Sep-30 05:39  m  03 05 57.885487 -26 10 15.38047
 2018-Sep-30 05:40  m  03 05 57.909828 -26 10 15.96312
 2018-Sep-30 05:41  m  03 05 57.934103 -26 10 16.54486
 2018-Sep-30 05:42  m  03 05 57.958310 -26 10 17.12569
 2018-Sep-30 05:43  m  03 05 57.982452 -26 10 17.70559
 2018-Sep-30 05:44  m  03 05 58.006529 -26 10 18.28458
 2018-Sep-30 05:45  m  03 05 58.030541 -26 10 18.86265
 2018-Sep-30 05:46  m  03 05 58.054489 -26 10 19.43980
 2018-Sep-30 05:47  m  03 05 58.078374 -26 10 20.01602
 2018-Sep-30 05:48  m  03 05 58.102196 -26 10 20.59132
 2018-Sep-30 05:49  m  03 05 58.125956 -26 10 21.16570
 2018-Sep-30 05:50  m  03 05 58.149654 -26 10 21.73915
 2018-Sep-30 05:51  m  03 05 58.173292 -26 10 22.31166
 2018-Sep-30 05:52  m  03 05 58.196870 -26 10 22.88325
 2018-Sep-30 05:53  m  03 05 58.220389 -26 10 23.45391
 2018-Sep-30 05:54  m  03 05 58.243848 -26 10 24.02364
 2018-Sep-30 05:55  m  03 05 58.267250 -26 10 24.59243
 2018-Sep-30 05:56  m  03 05 58.290594 -26 10 25.16029
 2018-Sep-30 05:57  m  03 05 58.313881 -26 10 25.72721
 2018-Sep-30 05:58  m  03 05 58.337112 -26 10 26.29319
 2018-Sep-30 05:59  m  03 05 58.360288 -26 10 26.85824
 2018-Sep-30 06:00  m  03 05 58.383408 -26 10 27.42234
 2018-Sep-30 06:01  m  03 05 58.406475 -26 10 27.98550
 2018-Sep-30 06:02  m  03 05 58.429488 -26 10 28.54773
 2018-Sep-30 06:03  m  03 05 58.452448 -26 10 29.10900
 2018-Sep-30 06:04  m  03 05 58.475355 -26 10 29.66933
 2018-Sep-30 06:05  m  03 05 58.498212 -26 10 30.22872
 2018-Sep-30 06:06  m  03 05 58.521017 -26 10 30.78716
 2018-Sep-30 06:07  m  03 05 58.543772 -26 10 31.34465
 2018-Sep-30 06:08  m  03 05 58.566477 -26 10 31.90119
 2018-Sep-30 06:09  m  03 05 58.589134 -26 10 32.45678
 2018-Sep-30 06:10  m  03 05 58.611742 -26 10 33.01141
 2018-Sep-30 06:11  m  03 05 58.634302 -26 10 33.56510
 2018-Sep-30 06:12  m  03 05 58.656816 -26 10 34.11783
 2018-Sep-30 06:13  m  03 05 58.679283 -26 10 34.66961
 2018-Sep-30 06:14  m  03 05 58.701705 -26 10 35.22043
 2018-Sep-30 06:15  m  03 05 58.724082 -26 10 35.77030
 2018-Sep-30 06:16  m  03 05 58.746414 -26 10 36.31920
 2018-Sep-30 06:17  m  03 05 58.768703 -26 10 36.86715
 2018-Sep-30 06:18  m  03 05 58.790949 -26 10 37.41414
 2018-Sep-30 06:19  m  03 05 58.813153 -26 10 37.96017
 2018-Sep-30 06:20  m  03 05 58.835315 -26 10 38.50524
 2018-Sep-30 06:21  m  03 05 58.857436 -26 10 39.04934
 2018-Sep-30 06:22  m  03 05 58.879517 -26 10 39.59248
 2018-Sep-30 06:23  m  03 05 58.901558 -26 10 40.13466
 2018-Sep-30 06:24  m  03 05 58.923560 -26 10 40.67588
 2018-Sep-30 06:25  m  03 05 58.945524 -26 10 41.21612
 2018-Sep-30 06:26  m  03 05 58.967451 -26 10 41.75540
 2018-Sep-30 06:27  m  03 05 58.989341 -26 10 42.29372
 2018-Sep-30 06:28  m  03 05 59.011194 -26 10 42.83107
 2018-Sep-30 06:29  m  03 05 59.033012 -26 10 43.36744
 2018-Sep-30 06:30  m  03 05 59.054795 -26 10 43.90285
 2018-Sep-30 06:31  m  03 05 59.076543 -26 10 44.43729
 2018-Sep-30 06:32  m  03 05 59.098259 -26 10 44.97076
 2018-Sep-30 06:33  m  03 05 59.119941 -26 10 45.50325
 2018-Sep-30 06:34  m  03 05 59.141591 -26 10 46.03478
 2018-Sep-30 06:35  m  03 05 59.163210 -26 10 46.56533
 2018-Sep-30 06:36  m  03 05 59.184798 -26 10 47.09491
 2018-Sep-30 06:37  m  03 05 59.206356 -26 10 47.62351
 2018-Sep-30 06:38  m  03 05 59.227884 -26 10 48.15114
 2018-Sep-30 06:39  m  03 05 59.249383 -26 10 48.67780
 2018-Sep-30 06:40  m  03 05 59.270855 -26 10 49.20348
 2018-Sep-30 06:41  m  03 05 59.292299 -26 10 49.72818
 2018-Sep-30 06:42  m  03 05 59.313716 -26 10 50.25191
 2018-Sep-30 06:43  m  03 05 59.335107 -26 10 50.77466
 2018-Sep-30 06:44  m  03 05 59.356473 -26 10 51.29643
 2018-Sep-30 06:45  m  03 05 59.377814 -26 10 51.81723
 2018-Sep-30 06:46  m  03 05 59.399131 -26 10 52.33704
 2018-Sep-30 06:47  m  03 05 59.420425 -26 10 52.85588
 2018-Sep-30 06:48  m  03 05 59.441696 -26 10 53.37374
 2018-Sep-30 06:49  m  03 05 59.462946 -26 10 53.89061
 2018-Sep-30 06:50  m  03 05 59.484174 -26 10 54.40651
 2018-Sep-30 06:51  m  03 05 59.505381 -26 10 54.92143
 2018-Sep-30 06:52  m  03 05 59.526568 -26 10 55.43537
 2018-Sep-30 06:53  m  03 05 59.547736 -26 10 55.94832
 2018-Sep-30 06:54  m  03 05 59.568886 -26 10 56.46030
 2018-Sep-30 06:55  m  03 05 59.590018 -26 10 56.97129
 2018-Sep-30 06:56  m  03 05 59.611132 -26 10 57.48130
 2018-Sep-30 06:57  m  03 05 59.632230 -26 10 57.99033
 2018-Sep-30 06:58  m  03 05 59.653313 -26 10 58.49838
 2018-Sep-30 06:59  m  03 05 59.674380 -26 10 59.00544
 2018-Sep-30 07:00  m  03 05 59.695433 -26 10 59.51152
 2018-Sep-30 07:01  m  03 05 59.716471 -26 11 00.01662
 2018-Sep-30 07:02  m  03 05 59.737497 -26 11 00.52074
